[{"OBJECT_NAME":"CARTOSAT-2B","OBJECT_ID":"2010-035A","EPOCH":"2026-03-09T09:22:05.678400","MEAN_MOTION":14.78772269,"ECCENTRICITY":0.00124689,"INCLINATION":97.8747,"RA_OF_ASC_NODE":119.6773,"ARG_OF_PERICENTER":150.1325,"MEAN_ANOMALY":210.06,"EPHEMERIS_TYPE":0,"CLASSIFICATION_TYPE":"U","NORAD_CAT_ID":36795,"ELEMENT_SET_NO":999,"REV_AT_EPOCH":84510,"BSTAR":0.0001830405,"MEAN_MOTION_DOT":1.295e-5,"MEAN_MOTION_DDOT":0},{"OBJECT_NAME":"KUIPER-00097","OBJECT_ID":"2025-171E","EPOCH":"2026-03-09T11:19:50.774880","MEAN_MOTION":14.79937818,"ECCENTRICITY":4.755e-5,"INCLINATION":51.9006,"RA_OF_ASC_NODE":161.6726,"ARG_OF_PERICENTER":76.0557,"MEAN_ANOMALY":284.0458,"EPHEMERIS_TYPE":0,"CLASSIFICATION_TYPE":"U","NORAD_CAT_ID":65136,"ELEMENT_SET_NO":999,"REV_AT_EPOCH":3281,"BSTAR":0.00077246704,"MEAN_MOTION_DOT":5.673e-5,"MEAN_MOTION_DDOT":0}]
